{"version": 0.6, "generator": "Overpass API 0.7.62.4 2390de5a", "osm3s": {"timestamp_osm_base": "2025-01-12T11:38:35Z", "copyright": "The data included in this document is from www.openstreetmap.org. The data is made available under ODbL."}, "elements": [{"type": "node", "id": 5133060362, "lat": 10.7767623, "lon": 106.7011043, "tags": {"addr:city": "Ho Chi Minh City", "addr:district": "Qu\u1eadn 1", "addr:housenumber": "86", "addr:street": "L\u00ea Th\u00e1nh T\u00f4n", "government": "ministry", "name": "S\u1edf N\u1ed9i V\u1ee5", "name:en": "Department of Interior Affairs", "name:id": "Dinas Urusan Internal", "office": "government"}}, {"type": "node", "id": 7500509861, "lat": 10.7772873, "lon": 106.7008019, "tags": {"government": "ministry", "name": "S\u1edf C\u00f4ng th\u01b0\u01a1ng", "name:en": "Department of Industry and Trade", "name:id": "Dinas Perindustrian dan Perdagangan", "name:zh": "\u5de5\u5546\u5385", "office": "government"}}, {"type": "node", "id": 7500512706, "lat": 10.7767765, "lon": 106.7004618}, {"type": "node", "id": 7500512707, "lat": 10.7768179, "lon": 106.7004946}, {"type": "node", "id": 7500512711, "lat": 10.7769432, "lon": 106.7005937}, {"type": "node", "id": 7500512712, "lat": 10.7771054, "lon": 106.7003813}, {"type": "node", "id": 7500512713, "lat": 10.7772131, "lon": 106.7004665}, {"type": "node", "id": 7500512714, "lat": 10.7771026, "lon": 106.7006112}, {"type": "node", "id": 7500512715, "lat": 10.7770909, "lon": 106.700602}, {"type": "node", "id": 7500512716, "lat": 10.7769564, "lon": 106.7007781}, {"type": "node", "id": 7500512717, "lat": 10.7768732, "lon": 106.7007122}, {"type": "node", "id": 7500512718, "lat": 10.776891, "lon": 106.7006889}, {"type": "node", "id": 7500512719, "lat": 10.7767651, "lon": 106.7004528}, {"type": "node", "id": 7500512720, "lat": 10.7766155, "lon": 106.7003344}, {"type": "node", "id": 7500512721, "lat": 10.7767713, "lon": 106.7001304}, {"type": "node", "id": 7500512722, "lat": 10.7766907, "lon": 106.7000667}, {"type": "node", "id": 7500512723, "lat": 10.776539, "lon": 106.7002653}, {"type": "node", "id": 7500512724, "lat": 10.7764352, "lon": 106.7001831}, {"type": "node", "id": 7500512725, "lat": 10.7763661, "lon": 106.7002735}, {"type": "node", "id": 7500512726, "lat": 10.7767001, "lon": 106.7005378}, {"type": "way", "id": 801887662, "nodes": [7500512726, 7500512718, 7500512717, 7500512716, 7500512715, 7500512714, 7500512713, 7500512712, 7500512711, 7500512707, 7500512706, 7500512719, 7500512726], "tags": {"building": "office", "government": "ministry", "name": "S\u1edf T\u00e0i Nguy\u00ean M\u00f4i Tr\u01b0\u1eddng TPHCM", "name:en": "Department of Natural Resources and Environment", "name:id": "Dinas Sumber Daya Alam dan Lingkungan", "name:vi": "S\u1edf T\u00e0i nguy\u00ean M\u00f4i tr\u01b0\u1eddng", "name:zh": "\u8d22\u6e90\u73af\u5883\u5385", "office": "government"}}, {"type": "way", "id": 801887663, "nodes": [7500512726, 7500512725, 7500512724, 7500512723, 7500512722, 7500512721, 7500512720, 7500512719, 7500512726], "tags": {"addr:city": "Th\u00e0nh ph\u1ed1 H\u1ed3 Ch\u00ed Minh", "addr:district": "District 1", "addr:housenumber": "63", "addr:street": "L\u00fd T\u1ef1 Tr\u1ecdng", "building": "office", "government": "ministry", "name": "S\u1edf Giao Th\u00f4ng V\u1eadn T\u1ea3i TPHCM", "name:en": "Department of Transport", "name:id": "Dinas Perhubungan Kota Ho Chi Minh", "name:zh": "\u4ea4\u901a\u8fd0\u8f93\u5385", "office": "government"}}]}